{"type": "FeatureCollection", "features": [ {"type": "Feature", "properties": {"norad_id": 30629, "name": "FENGYUN 1C DEB", "group": "fengyun-1c-debris", "lat": -42.14229690471449, "lon": 87.86646907862091, "alt_km": 703.612327321066, "timestamp": "2025-12-09T18:55:17.509524+00:00", "meta": {"OBJECT_NAME": "FENGYUN 1C DEB", "OBJECT_ID": "1999-025ANL", "EPOCH": "2025-12-09T12:37:17.365152", "MEAN_MOTION": 14.59422482, "ECCENTRICITY": 0.00077297, "INCLINATION": 99.2513, "RA_OF_ASC_NODE": 79.0925, "ARG_OF_PERICENTER": 206.1182, "MEAN_ANOMALY": 172.6877, "EPHEMERIS_TYPE": 0, "CLASSIFICATION_TYPE": "U", "NORAD_CAT_ID": 30629, "ELEMENT_SET_NO": 999, "REV_AT_EPOCH": 97843, "BSTAR": 0.0045556552, "MEAN_MOTION_DOT": 0.00021608, "MEAN_MOTION_DDOT": 0}, "tle": {"line1": "1 30629U 99025ANL 25343.52589543  .00021608  00000+0  45557-2 0  9997", "line2": "2 30629  99.2513  79.0925 0007729 206.1182 172.6877 14.59422482978438"}}, "geometry": {"type": "Point", "coordinates": [87.86646907862091, -42.14229690471449]}}, {"type": "Feature", "properties": {"norad_id": 30630, "name": "FENGYUN 1C DEB", "group": "fengyun-1c-debris", "lat": -49.449035690485935, "lon": 167.59206226274338, "alt_km": 836.9700941841529, "timestamp": "2025-12-09T18:55:17.509534+00:00", "meta": {"OBJECT_NAME": "FENGYUN 1C DEB", "OBJECT_ID": "1999-025ANM", "EPOCH": "2025-12-09T10:51:03.924864", "MEAN_MOTION": 14.22358716, "ECCENTRICITY": 0.00259837, "INCLINATION": 99.1728, "RA_OF_ASC_NODE": 156.3569, "ARG_OF_PERICENTER": 83.8752, "MEAN_ANOMALY": 305.1961, "EPHEMERIS_TYPE": 0, "CLASSIFICATION_TYPE": "U", "NORAD_CAT_ID": 30630, "ELEMENT_SET_NO": 999, "REV_AT_EPOCH": 97166, "BSTAR": 0.0014463721, "MEAN_MOTION_DOT": 3.182e-05, "MEAN_MOTION_DDOT": 0}, "tle": {"line1": "1 30630U 99025ANM 25343.45212876  .00003182  00000+0  14464-2 0  9993", "line2": "2 30630  99.1728 156.3569 0025983  83.8752 305.1961 14.22358716971668"}}, "geometry": {"type": "Point", "coordinates": [167.59206226274338, -49.449035690485935]}}, {"type": "Feature", "properties": {"norad_id": 30632, "name": "FENGYUN 1C DEB", "group": "fengyun-1c-debris", "lat": 70.99593949944536, "lon": 88.12695893563837, "alt_km": 680.7717488826474, "timestamp": "2025-12-09T18:55:17.509544+00:00", "meta": {"OBJECT_NAME": "FENGYUN 1C DEB", "OBJECT_ID": "1999-025ANP", "EPOCH": "2025-12-09T07:21:31.580928", "MEAN_MOTION": 14.62544856, "ECCENTRICITY": 0.0015204, "INCLINATION": 98.8238, "RA_OF_ASC_NODE": 114.422, "ARG_OF_PERICENTER": 179.6581, "MEAN_ANOMALY": 238.447, "EPHEMERIS_TYPE": 0, "CLASSIFICATION_TYPE": "U", "NORAD_CAT_ID": 30632, "ELEMENT_SET_NO": 999, "REV_AT_EPOCH": 97641, "BSTAR": 0.0053173, "MEAN_MOTION_DOT": 0.00027077, "MEAN_MOTION_DDOT": 0}, "tle": {"line1": "1 30632U 99025ANP 25343.30661552  .00027077  00000+0  53173-2 0  9997", "line2": "2 30632  98.8238 114.4220 0015204 179.6581 238.4470 14.62544856976417"}}, "geometry": {"type": "Point", "coordinates": [88.12695893563837, 70.99593949944536]}}, {"type": "Feature", "properties": {"norad_id": 30633, "name": "FENGYUN 1C DEB", "group": "fengyun-1c-debris", "lat": -38.8063761410925, "lon": 22.162389682473457, "alt_km": 822.7564180146246, "timestamp": "2025-12-09T18:55:17.509554+00:00", "meta": {"OBJECT_NAME": "FENGYUN 1C DEB", "OBJECT_ID": "1999-025ANQ", "EPOCH": "2025-12-09T14:34:27.482592", "MEAN_MOTION": 14.04375509, "ECCENTRICITY": 0.01304729, "INCLINATION": 98.4203, "RA_OF_ASC_NODE": 208.8357, "ARG_OF_PERICENTER": 269.1329, "MEAN_ANOMALY": 115.9506, "EPHEMERIS_TYPE": 0, "CLASSIFICATION_TYPE": "U", "NORAD_CAT_ID": 30633, "ELEMENT_SET_NO": 999, "REV_AT_EPOCH": 95848, "BSTAR": 0.0013932472, "MEAN_MOTION_DOT": 2.352e-05, "MEAN_MOTION_DDOT": 0}, "tle": {"line1": "1 30633U 99025ANQ 25343.60726253  .00002352  00000+0  13932-2 0  9999", "line2": "2 30633  98.4203 208.8357 0130472 269.1329 115.9506 14.04375509958484"}}, "geometry": {"type": "Point", "coordinates": [22.162389682473457, -38.8063761410925]}}, {"type": "Feature", "properties": {"norad_id": 30634, "name": "FENGYUN 1C DEB", "group": "fengyun-1c-debris", "lat": 9.133939358178557, "lon": 148.02089661704974, "alt_km": 825.4511107934395, "timestamp": "2025-12-09T18:55:17.509564+00:00", "meta": {"OBJECT_NAME": "FENGYUN 1C DEB", "OBJECT_ID": "1999-025ANR", "EPOCH": "2025-12-09T10:19:19.692192", "MEAN_MOTION": 14.0967059, "ECCENTRICITY": 0.01206346, "INCLINATION": 99.2926, "RA_OF_ASC_NODE": 326.1427, "ARG_OF_PERICENTER": 105.8103, "MEAN_ANOMALY": 46.2105, "EPHEMERIS_TYPE": 0, "CLASSIFICATION_TYPE": "U", "NORAD_CAT_ID": 30634, "ELEMENT_SET_NO": 999, "REV_AT_EPOCH": 95570, "BSTAR": 0.0029526607, "MEAN_MOTION_DOT": 5.496e-05, "MEAN_MOTION_DDOT": 0}, "tle": {"line1": "1 30634U 99025ANR 25343.43008903  .00005496  00000+0  29527-2 0  9995", "line2": "2 30634  99.2926 326.1427 0120634 105.8103  46.2105 14.09670590955709"}}, "geometry": {"type": "Point", "coordinates": [148.02089661704974, 9.133939358178557]}}, {"type": "Feature", "properties": {"norad_id": 30639, "name": "FENGYUN 1C DEB", "group": "fengyun-1c-debris", "lat": -42.74735739919223, "lon": 104.09942845196124, "alt_km": 747.857464324944, "timestamp": "2025-12-09T18:55:17.509575+00:00", "meta": {"OBJECT_NAME": "FENGYUN 1C DEB", "OBJECT_ID": "1999-025ANW", "EPOCH": "2025-12-09T14:05:31.983072", "MEAN_MOTION": 14.32249677, "ECCENTRICITY": 0.00670753, "INCLINATION": 99.0188, "RA_OF_ASC_NODE": 95.4487, "ARG_OF_PERICENTER": 290.4121, "MEAN_ANOMALY": 68.9867, "EPHEMERIS_TYPE": 0, "CLASSIFICATION_TYPE": "U", "NORAD_CAT_ID": 30639, "ELEMENT_SET_NO": 999, "REV_AT_EPOCH": 96674, "BSTAR": 0.0042569869, "MEAN_MOTION_DOT": 0.0001174, "MEAN_MOTION_DDOT": 0}, "tle": {"line1": "1 30639U 99025ANW 25343.58717573  .00011740  00000+0  42570-2 0  9998", "line2": "2 30639  99.0188  95.4487 0067075 290.4121  68.9867 14.32249677966740"}}, "geometry": {"type": "Point", "coordinates": [104.09942845196124, -42.74735739919223]}}, {"type": "Feature", "properties": {"norad_id": 30640, "name": "FENGYUN 1C DEB", "group": "fengyun-1c-debris", "lat": -76.72777720534091, "lon": 97.5032378067942, "alt_km": 908.8342342472561, "timestamp": "2025-12-09T18:55:17.509585+00:00", "meta": {"OBJECT_NAME": "FENGYUN 1C DEB", "OBJECT_ID": "1999-025ANX", "EPOCH": "2025-12-09T04:17:16.135008", "MEAN_MOTION": 14.14600532, "ECCENTRICITY": 0.00811699, "INCLINATION": 99.0572, "RA_OF_ASC_NODE": 54.3348, "ARG_OF_PERICENTER": 110.5747, "MEAN_ANOMALY": 305.6255, "EPHEMERIS_TYPE": 0, "CLASSIFICATION_TYPE": "U", "NORAD_CAT_ID": 30640, "ELEMENT_SET_NO": 999, "REV_AT_EPOCH": 96395, "BSTAR": 0.0016390573, "MEAN_MOTION_DOT": 3.206e-05, "MEAN_MOTION_DDOT": 0}, "tle": {"line1": "1 30640U 99025ANX 25343.17865897  .00003206  00000+0  16391-2 0  9998", "line2": "2 30640  99.0572  54.3348 0081169 110.5747 305.6255 14.14600532963958"}}, "geometry": {"type": "Point", "coordinates": [97.5032378067942, -76.72777720534091]}}, {"type": "Feature", "properties": {"norad_id": 30641, "name": "FENGYUN 1C DEB", "group": "fengyun-1c-debris", "lat": -80.39983778114718, "lon": 29.25872644288062, "alt_km": 701.4300317799389, "timestamp": "2025-12-09T18:55:17.509595+00:00", "meta": {"OBJECT_NAME": "FENGYUN 1C DEB", "OBJECT_ID": "1999-025ANY", "EPOCH": "2025-12-08T19:14:48.630336", "MEAN_MOTION": 14.78914798, "ECCENTRICITY": 0.01360654, "INCLINATION": 98.9421, "RA_OF_ASC_NODE": 276.7402, "ARG_OF_PERICENTER": 138.9481, "MEAN_ANOMALY": 277.5159, "EPHEMERIS_TYPE": 0, "CLASSIFICATION_TYPE": "U", "NORAD_CAT_ID": 30641, "ELEMENT_SET_NO": 999, "REV_AT_EPOCH": 474, "BSTAR": 0.00071006747, "MEAN_MOTION_DOT": 6.053e-05, "MEAN_MOTION_DDOT": 0}, "tle": {"line1": "1 30641U 99025ANY 25342.80195174  .00006053  00000+0  71007-3 0  9991", "line2": "2 30641  98.9421 276.7402 0136065 138.9481 277.5159 14.78914798  4741"}}, "geometry": {"type": "Point", "coordinates": [29.25872644288062, -80.39983778114718]}}, {"type": "Feature", "properties": {"norad_id": 30646, "name": "FENGYUN 1C DEB", "group": "fengyun-1c-debris", "lat": 18.329068042971244, "lon": 1.5512983052504208, "alt_km": 828.2898524896373, "timestamp": "2025-12-09T18:55:17.509605+00:00", "meta": {"OBJECT_NAME": "FENGYUN 1C DEB", "OBJECT_ID": "1999-025APD", "EPOCH": "2025-12-09T00:05:45.397824", "MEAN_MOTION": 14.09638411, "ECCENTRICITY": 0.00484067, "INCLINATION": 98.6523, "RA_OF_ASC_NODE": 3.6888, "ARG_OF_PERICENTER": 42.6968, "MEAN_ANOMALY": 317.7949, "EPHEMERIS_TYPE": 0, "CLASSIFICATION_TYPE": "U", "NORAD_CAT_ID": 30646, "ELEMENT_SET_NO": 999, "REV_AT_EPOCH": 96552, "BSTAR": 0.0010048504, "MEAN_MOTION_DOT": 1.738e-05, "MEAN_MOTION_DDOT": 0}, "tle": {"line1": "1 30646U 99025APD 25343.00399766  .00001738  00000+0  10049-2 0  9995", "line2": "2 30646  98.6523   3.6888 0048406  42.6968 317.7949 14.09638411965528"}}, "geometry": {"type": "Point", "coordinates": [1.5512983052504208, 18.329068042971244]}}, {"type": "Feature", "properties": {"norad_id": 30647, "name": "FENGYUN 1C DEB", "group": "fengyun-1c-debris", "lat": -18.173726759099626, "lon": -81.41778251623019, "alt_km": 728.8453818535054, "timestamp": "2025-12-09T18:55:17.509615+00:00", "meta": {"OBJECT_NAME": "FENGYUN 1C DEB", "OBJECT_ID": "1999-025APE", "EPOCH": "2025-12-08T14:08:38.652864", "MEAN_MOTION": 14.56346619, "ECCENTRICITY": 0.0028934, "INCLINATION": 98.9892, "RA_OF_ASC_NODE": 274.3121, "ARG_OF_PERICENTER": 187.4454, "MEAN_ANOMALY": 351.2018, "EPHEMERIS_TYPE": 0, "CLASSIFICATION_TYPE": "U", "NORAD_CAT_ID": 30647, "ELEMENT_SET_NO": 999, "REV_AT_EPOCH": 97928, "BSTAR": 0.0033052, "MEAN_MOTION_DOT": 0.00014711, "MEAN_MOTION_DDOT": 0}, "tle": {"line1": "1 30647U 99025APE 25342.58933626  .00014711  00000+0  33052-2 0  9991", "line2": "2 30647  98.9892 274.3121 0028934 187.4454 351.2018 14.56346619979286"}}, "geometry": {"type": "Point", "coordinates": [-81.41778251623019, -18.173726759099626]}}]}